OBJECT_NAME,OBJECT_ID,EPOCH,MEAN_MOTION,ECCENTRICITY,INCLINATION,RA_OF_ASC_NODE,ARG_OF_PERICENTER,MEAN_ANOMALY,EPHEMERIS_TYPE,CLASSIFICATION_TYPE,NORAD_CAT_ID,ELEMENT_SET_NO,REV_AT_EPOCH,BSTAR,MEAN_MOTION_DOT,MEAN_MOTION_DDOT
INTELSAT 23 (IS-23),2012-057A,2026-07-17T13:38:24.656352,1.00263006,.0000697,0.0156,321.6967,290.4436,194.8096,0,U,38867,999,5026,0,-.294E-5,0
FM-6,2013-058A,2026-07-17T14:25:55.262784,1.00271319,.0001621,0.0095,31.7846,150.7443,213.0085,0,U,39360,999,4637,0,-.25E-6,0
INTELSAT 30 (IS-30),2014-062A,2026-07-17T09:24:01.566720,1.00273680,.0001509,0.0185,56.4382,335.3570,309.3685,0,U,40271,999,709,0,-.161E-5,0
DIRECTV 14,2014-078B,2026-07-17T14:30:47.297376,1.00269935,.0000331,0.0105,45.4379,318.7570,49.6761,0,U,40333,999,4234,0,-.135E-5,0
DIRECTV 15,2015-026A,2026-07-17T14:29:39.905376,1.00272685,.000016,0.0230,78.6192,321.3364,9.9880,0,U,40663,999,4076,0,-.112E-5,0
SKY MEXICO-1,2015-026B,2026-07-17T09:28:38.624736,1.00273000,.0002331,0.0130,67.3239,65.4002,225.8447,0,U,40664,999,4075,0,-.244E-5,0
INTELSAT 34 (IS-34),2015-039A,2026-07-17T13:35:01.358016,1.00271968,.0000437,0.0102,26.4718,330.4627,86.7015,0,U,40874,999,3993,0,-.295E-5,0
INTELSAT 31 (IS-31),2016-035A,2026-07-17T08:51:38.465280,1.00270166,.0001057,0.0060,13.9840,283.2475,35.8039,0,U,41581,999,3698,0,-.16E-5,0
INTELSAT 36 (IS-36),2016-053A,2026-07-17T10:10:34.604832,1.00271735,.0002294,0.0105,39.2752,305.0932,171.9939,0,U,41747,999,3626,0,-.34E-6,0
INTELSAT 32E (IS-32E),2017-007B,2026-07-17T11:21:15.318144,1.00266326,.0000707,0.0204,56.8085,317.0659,48.5532,0,U,41945,999,3452,0,0,0
INTELSAT 35E (IS-35E),2017-041A,2026-07-17T11:23:52.567008,1.00272841,.0001884,0.0189,50.9911,67.1738,313.5877,0,U,42818,999,3311,0,-.248E-5,0
INTELSAT 37E (IS-37E),2017-059A,2026-07-17T14:53:45.094848,1.00272848,.0002608,0.0129,77.1082,42.6588,21.0913,0,U,42950,999,3237,0,-.15E-5,0
AZERSPACE 2 (IS-38),2018-074A,2026-07-17T11:46:35.387904,1.00270637,.0001457,0.0225,57.4459,53.1326,46.4993,0,U,43632,999,2875,0,0,0
HORIZONS-3E,2018-074B,2026-07-17T14:37:38.518176,1.00271240,.0000746,0.0397,248.7471,38.5602,36.5111,0,U,43633,999,2864,0,-.4E-6,0
AT&T T-16,2019-034A,2026-07-17T11:05:01.871808,1.00274290,.0000663,0.0143,73.6211,281.6891,5.3659,0,U,44333,999,2593,0,-.125E-5,0
INTELSAT 39 (IS-39),2019-049B,2026-07-17T17:31:21.567072,1.00269532,.0000919,0.0202,56.5342,294.5973,269.2072,0,U,44476,999,2543,0,0,0
GALAXY 30 (G-30),2020-056C,2026-07-17T14:23:25.503072,1.00270960,.0002254,0.0225,59.8270,58.8872,267.5676,0,U,46114,999,2159,0,0,0
GALAXY 33 (G-33),2022-128A,2026-07-17T14:21:10.718208,1.00269706,.0001837,0.0155,60.9088,52.7680,264.0152,0,U,54026,999,1404,0,.7E-6,0
GALAXY 34 (G-34),2022-128B,2026-07-17T17:02:22.932096,1.00271292,.0001511,0.0094,64.4505,52.4540,305.2046,0,U,54027,999,1421,0,.5E-6,0
GALAXY 31 (G-31),2022-153A,2026-07-17T14:24:32.895072,1.00271946,.0001082,0.0182,92.8327,26.6125,271.0865,0,U,54243,999,743,0,.4E-7,0
GALAXY 32 (G-32),2022-153B,2026-07-17T14:32:54.593088,1.00272408,.0001391,0.0114,49.3662,356.7462,16.5326,0,U,54244,999,1344,0,-.184E-5,0
GALAXY 35 (G-35),2022-170A,2026-07-17T14:32:32.129088,1.00272222,.0001859,0.0139,85.1291,31.1941,304.1159,0,U,54741,999,1319,0,-.172E-5,0
GALAXY 36 (G-36),2022-170B,2026-07-17T14:33:39.521088,1.00271838,.0002605,0.0161,139.7187,318.8231,326.2904,0,U,54742,999,1307,0,-.195E-5,0
GALAXY 37 (G-37),2023-112A,2026-07-17T14:22:48.063360,1.00269990,.0002019,0.0198,55.8349,59.5726,268.7145,0,U,57493,999,1084,0,0,0
