INTELSAT 23 (IS-23)     
1 38867U 12057A   26198.56834093 -.00000294  00000+0  00000+0 0  9995
2 38867   0.0156 321.6967 0000697 290.4436 194.8096  1.00263006 50268
FM-6                    
1 39360U 13058A   26198.60133406 -.00000025  00000+0  00000+0 0  9993
2 39360   0.0095  31.7846 0001621 150.7443 213.0085  1.00271319 46373
INTELSAT 30 (IS-30)     
1 40271U 14062A   26198.39168480 -.00000161  00000+0  00000+0 0  9999
2 40271   0.0185  56.4382 0001509 335.3570 309.3685  1.00273680  7096
DIRECTV 14              
1 40333U 14078B   26198.60471409 -.00000135  00000+0  00000+0 0  9998
2 40333   0.0105  45.4379 0000331 318.7570  49.6761  1.00269935 42342
DIRECTV 15              
1 40663U 15026A   26198.60393409 -.00000112  00000+0  00000+0 0  9996
2 40663   0.0230  78.6192 0000160 321.3364   9.9880  1.00272685 40760
SKY MEXICO-1            
1 40664U 15026B   26198.39489149 -.00000244  00000+0  00000+0 0  9996
2 40664   0.0130  67.3239 0002331  65.4002 225.8447  1.00273000 40753
INTELSAT 34 (IS-34)     
1 40874U 15039A   26198.56598794 -.00000295  00000+0  00000+0 0  9995
2 40874   0.0102  26.4718 0000437 330.4627  86.7015  1.00271968 39930
INTELSAT 31 (IS-31)     
1 41581U 16035A   26198.36919520 -.00000160  00000+0  00000+0 0  9991
2 41581   0.0060  13.9840 0001057 283.2475  35.8039  1.00270166 36983
INTELSAT 36 (IS-36)     
1 41747U 16053A   26198.42401163 -.00000034  00000+0  00000+0 0  9991
2 41747   0.0105  39.2752 0002294 305.0932 171.9939  1.00271735 36260
INTELSAT 32E (IS-32E)   
1 41945U 17007B   26198.47309396  .00000000  00000+0  00000+0 0  9993
2 41945   0.0204  56.8085 0000707 317.0659  48.5532  1.00266326 34525
INTELSAT 35E (IS-35E)   
1 42818U 17041A   26198.47491397 -.00000248  00000+0  00000+0 0  9999
2 42818   0.0189  50.9911 0001884  67.1738 313.5877  1.00272841 33118
INTELSAT 37E (IS-37E)   
1 42950U 17059A   26198.62066082 -.00000150  00000+0  00000+0 0  9993
2 42950   0.0129  77.1082 0002608  42.6588  21.0913  1.00272848 32371
AZERSPACE 2 (IS-38)     
1 43632U 18074A   26198.49068736  .00000000  00000+0  00000+0 0  9995
2 43632   0.0225  57.4459 0001457  53.1326  46.4993  1.00270637 28753
HORIZONS-3E             
1 43633U 18074B   26198.60947359 -.00000040  00000+0  00000+0 0  9991
2 43633   0.0397 248.7471 0000746  38.5602  36.5111  1.00271240 28648
AT&T T-16               
1 44333U 19034A   26198.46182722 -.00000125  00000+0  00000+0 0  9999
2 44333   0.0143  73.6211 0000663 281.6891   5.3659  1.00274290 25939
INTELSAT 39 (IS-39)     
1 44476U 19049B   26198.73011073  .00000000  00000+0  00000+0 0  9994
2 44476   0.0202  56.5342 0000919 294.5973 269.2072  1.00269532 25434
GALAXY 30 (G-30)        
1 46114U 20056C   26198.59960073  .00000000  00000+0  00000+0 0  9992
2 46114   0.0225  59.8270 0002254  58.8872 267.5676  1.00270960 21590
GALAXY 33 (G-33)        
1 54026U 22128A   26198.59804072  .00000070  00000+0  00000+0 0  9998
2 54026   0.0155  60.9088 0001837  52.7680 264.0152  1.00269706 14048
GALAXY 34 (G-34)        
1 54027U 22128B   26198.70998764  .00000050  00000+0  00000+0 0  9992
2 54027   0.0094  64.4505 0001511  52.4540 305.2046  1.00271292 14217
GALAXY 31 (G-31)        
1 54243U 22153A   26198.60038073  .00000004  00000+0  00000+0 0  9996
2 54243   0.0182  92.8327 0001082  26.6125 271.0865  1.00271946  7438
GALAXY 32 (G-32)        
1 54244U 22153B   26198.60618742 -.00000184  00000+0  00000+0 0  9994
2 54244   0.0114  49.3662 0001391 356.7462  16.5326  1.00272408 13443
GALAXY 35 (G-35)        
1 54741U 22170A   26198.60592742 -.00000172  00000+0  00000+0 0  9993
2 54741   0.0139  85.1291 0001859  31.1941 304.1159  1.00272222 13199
GALAXY 36 (G-36)        
1 54742U 22170B   26198.60670742 -.00000195  00000+0  00000+0 0  9996
2 54742   0.0161 139.7187 0002605 318.8231 326.2904  1.00271838 13074
GALAXY 37 (G-37)        
1 57493U 23112A   26198.59916740  .00000000  00000+0  00000+0 0  9992
2 57493   0.0198  55.8349 0002019  59.5726 268.7145  1.00269990 10840
